#dP2023 10 15  0  0  0.00000000      96 __u+U ITR00 EXT  IAC
## 2284      0.00000000   900.00000000 60232 0.0000000000000
+  118   C06C07C08C09C10C11C12C13C14C16C19C20C21C22C23C24C25
+        C26C27C28C29C30C32C33C34C35C36C37C38C39C40C41C42C43
+        C44C45C46E02E03E04E05E07E08E09E10E11E12E13E14E15E19
+        E21E24E25E26E27E30E31E33E34E36G01G02G03G04G05G06G07
+        G08G09G10G11G12G13G14G15G16G17G18G19G20G22G23G24G25
+        G26G27G28G29G30G31G32J02J03J04R01R02R03R04R05R07R08
+        R09R11R12R13R14R15R16R17R18R19R20R21R22R24R25R26  0
++        11 10 10 11 10  8  9 11  7 11  8  9  8  9  7  9  8
++         9  6  7 10  8  7  9  9  9  8  7 11 12 10  8  9  9
++         8  9  7  7  6  8  7  6  7  7  8  9  7  7  7  8  8
++         8  6  7  7  9  7  7  7 10  8  8  7  6  7  9  7  7
++         6  8  6 10  8  7  6  7  7  7  9  6  9  7  6  7  8
++         7  6  8  8  8  6  6  9 13  8  7  8  8  8  7  9  9
++         7  8  9  7  7  9  8 10  8  8 10  7  8  7  8  9  0
%c M  cc GPS ccc cccc cccc cccc cccc ccccc ccccc ccccc ccccc
%c cc cc ccc ccc cccc cccc cccc cccc ccccc ccccc ccccc ccccc
%f  0.0000000  0.000000000  0.00000000000  0.000000000000000
%f  0.0000000  0.000000000  0.00000000000  0.000000000000000
%i    0    0    0    0      0      0      0      0         0
%i    0    0    0    0      0      0      0      0         0
/* IAC                                ULTRA-RAPID PREDICTION
/* S/V CLOCKS ARE ALIGNED TO GNSS TIME                      
/* G:C1WC2W R:C1PC2P E:C1XC5X C:C2IC6I J:C1CC2S             
/* PCV:IGS20_2280 OL/AL:FES2004  NONE     YN ORB:CoN CLK:CoN
*  2023 10 15 16 45  0.00000000
PC06  -2764.063009  38687.326141 -16131.367969     56.245429
PC07 -10924.513506  25806.487237  31572.153147   -162.874514
PC08 -20080.810281  33456.458943 -16273.761306    295.026440
PC09   1391.853982  40808.548723  -8792.731405     37.911858
PC10  -1023.516656  27681.069543  32157.713459     17.919241
PC11 -16190.538902   1548.198737  22746.191512    205.050990
PC12 -18373.829791 -17229.998973  12038.965944    896.511540
PC13 -14075.893667  33892.103890 -20878.142082    367.984396
PC14 -26775.206213   4303.812623  -6463.630090    592.911006
PC16  -6208.596416  35850.475488 -20792.079373   -127.275134
PC19  21551.719845  -9890.021350  14739.504769   -972.054769
PC20  27881.541841    919.742792  -1120.443080    201.021971
PC21 -17796.659471 -12162.008570  17718.151328   -969.432853
PC22   2491.527332 -15604.312962  22989.517652   -265.306988
PC23  -8465.603187  25455.800287   7708.132741   -844.044902
PC24 -18114.785591    624.653644 -21237.432770    496.966219
PC25 -18016.448297  19408.771608  -8847.620236    233.515790
PC26  -7949.235191 -16677.951355 -20919.432163   -192.133721
PC27  15782.747665  22663.643536  -4001.853867    213.861761
PC28   4367.093663  24891.361853  11852.604496    160.926120
PC29  11191.308699 -12021.784732 -22561.640798    188.111821
PC30  19691.945252   8014.736871 -18072.318102     -6.561520
PC32  17803.822187  12070.304461 -17776.907402   -529.952174
PC33 -21559.002717   9984.812998 -14635.406095   -954.251818
PC34 -19489.354340  -6568.819877  18860.030881    281.718213
PC35  -5306.806896 -24756.683344 -11778.380562    524.649240
PC36  18709.471085 -18342.379097   9610.036643   -178.533014
PC37   6929.552022  17520.892058  20605.737093   -854.414716
PC38 -24220.272657  33726.996958  -7835.671147    111.321123
PC39  -7886.604217  32787.645595 -25124.501936     -5.252898
PC40 -15673.303091  19070.350468  34169.012426    -40.240482
PC41  -3291.001833  15587.260313 -22867.144340   -872.985145
PC42 -27708.466150  -1879.284799   2652.767940   -521.301572
PC43 -11917.813115  11206.510114  22600.068591     44.081175
PC44 -16554.501084 -22163.735589   3761.147055    262.528476
PC45   8115.146999 -25379.323439  -8247.172122    -36.357427
PC46  18393.653586  -1875.878859  20887.449890    -92.082162
PE02 -19443.624088  -6642.822265 -21312.979586     70.454500
PE03 -24996.356768 -15838.886780   -461.391847    -65.193073
PE04  23914.337961    962.129081  17415.083970   -234.950416
PE05 -11568.565007 -21500.597896  16730.898178     27.721157
PE07  -9115.036078  14349.106085 -24234.664097    -82.193257
PE08 -24086.753247  -1447.767109 -17145.862919   -161.836039
PE09   9179.744062 -14132.162792  24328.459911   -192.429071
PE10  13671.085523 -17070.169712 -19943.878559   -571.372720
PE11   9092.708665 -25514.644537 -11947.454242   3092.953736
PE12  15897.854847  -6888.554804 -24001.790299   -737.682757
PE13  -9396.843723  25086.118256  12601.143345    -19.674963
PE14  -8285.423827  13906.506589  19111.929509    369.461289
PE15 -15863.246136   6377.802448  24170.517961    -61.425313
PE19  23933.945632  17301.931366  -1964.098078  -1419.415611
PE21    980.353596  17750.702249  23671.356493   -558.585644
PE24  19397.231561 -18915.660283 -11903.214768   -377.231767
PE25   -581.208776 -17877.164215 -23574.161337     -3.289293
PE26   2921.379503  28665.187315  -6801.106525    252.090546
PE27 -18940.859132  19102.026773  12370.087221   -175.243960
PE30 -27525.892990   8806.699979  -6442.899063   -582.066564
PE31  27473.135786  -9168.742114   6108.353314     -7.688000
PE33  12709.287519  16416.956676 -21101.156283      0.411593
PE34 -12983.415908 -15753.300918  21424.637915    -72.542198
PE36  -2472.510022 -28843.145140   6172.488126   -130.304972
PG01 -13363.936203  12548.224267  18743.383189    163.706208
PG02 -14850.196419   5781.783282  21727.022961   -541.675478
PG03 -23326.593472  12520.683582  -1316.467157    -77.143665
PG04 -16411.558188   5502.763716 -20171.694284    185.244047
PG05  23314.829200  -3021.928722 -12633.356402   -146.613054
PG06   6337.234119  22646.701911 -12189.104789    529.909376
PG07  -5625.436434  24970.082257  -5602.715352     39.659799
PG08 -22593.492462  -2436.394974  14001.161463   -147.258189
PG09  -7037.691567  13686.058252 -21734.932154    -31.613551
PG10  -2157.071706 -15231.637963  21793.931343    -57.440059
PG11  12585.112640  12030.922973 -20054.796798   -416.379162
PG12  24714.969174  -9550.708864    864.202307   -436.179508
PG13  22164.881590  12391.325486   7951.866281    584.320653
PG14  -1897.471209  16966.163064  20328.838416    214.826670
PG15  22326.769637   -959.947099  14040.555102     87.384388
PG16 -21226.815202  -3716.962594 -16131.623549   -438.652290
PG17   7793.435466  19811.881092  16239.884857    723.820619
PG18   4967.150606 -25645.950039  -4214.504458   -449.657924
PG19  15313.058356  20164.313108   8382.248372    385.349664
PG20  16392.090378   5703.112953 -20010.728568    406.676650
PG22   4950.096560  14571.108290  22107.519421    102.385091
PG23  11130.928330 -18086.491722  15843.970306     83.125276
PG24  14721.389326  -7803.555845  20211.649765   -346.784679
PG25  17229.641645 -17268.061076 -10490.129746    472.846911
PG26 -13568.456261  -9871.945722 -20778.906842    223.015766
PG27 -23261.025767 -12907.166707   2886.655224    -55.540442
PG28  -6436.888172 -23669.894846 -10211.731106    -26.096941
PG29   7997.753210 -12678.650182 -21965.535573   -610.060351
PG30   1166.002014  26104.751360   4010.398671   -478.312503
PG31 -11073.660268 -16534.452966 -17576.628041   -224.680224
PG32 -12803.844649 -19390.276454  13231.299277   -573.019939
PJ02 -30632.326081  27465.612682  14518.415641     -5.739298
PJ03 -26614.331415  25163.058776  25990.036483     -5.185871
PJ04 -31485.039896  20391.934420 -14143.942280     71.228450
PR01 -23412.439379   1062.884246 -10069.895388     67.742727
PR02  -9883.960673   8480.577714 -21909.754440    -22.379052
PR03   9211.215847  11672.996128 -20667.877764     87.132415
PR04  22670.606994   8361.492056  -8120.020073    206.969781
PR05  23904.531604    636.644885   8839.369834    120.673543
PR07 -10146.757207 -11696.636106  20321.169287     66.920859
PR08 -22815.262224  -8225.551046   8018.995008    -72.942346
PR09  14366.955154 -20761.390628  -3903.000390    147.808338
PR11  -9802.533618  -5240.508836 -22946.308901   -197.378262
PR12 -18328.176938  11670.532584 -13348.459113     32.384194
PR13 -15614.499699  20094.638178   1763.763472    -40.229292
PR14  -2678.441401  17235.654919  18618.075039     25.419830
PR15  10812.147885   4167.519681  22745.470685     85.365172
PR16  18162.472719 -11598.417592  13686.184334     19.684778
PR17   7463.655928  24357.078174   1760.073870     26.031487
PR18  12383.657485  17155.649336 -14198.726212    106.992876
PR19  11417.013534   3133.177282 -22592.076006   -250.996882
PR20   3180.102186 -17674.521852 -18117.642908   -101.855419
PR21  -7666.571643 -24292.815513   -883.365877    -45.778446
PR22 -12271.518150 -16688.265449  14919.125626     88.827252
PR24  -2549.502148  18319.841083  17599.069913    -28.315236
PR25  -6374.516357 -24623.688884  -1725.599327     27.900557
PR26 -22606.560703  -8237.900228   8458.251035    -20.540189
EOF
